#dP2019  8  6  0  0  0.00000000      96 __u+U ITR00 FIT  IAC
## 2065 172800.00000000   900.00000000 58701 0.0000000000000
+   98   C01C02C03C04C06C07C08C09C10C11C12C13C14C16E01E02E03
+        E04E05E07E08E09E11E12E13E14E15E18E19E21E24E25E26E27
+        E30E31E33E36G01G02G03G04G05G06G07G08G09G10G11G12G13
+        G14G15G16G17G18G19G20G21G22G23G24G25G26G27G28G29G30
+        G31G32J01J02J03J07R01R02R03R04R05R06R07R08R09R11R12
+        R13R14R15R16R17R18R19R20R21R22R23R24R26  0  0  0  0
++        13 13 13 13  9  9  9  8  9  8  8  8  7  9  5  5  4
++         5  4  5  5  5  5  5  5  5  5  5  5  6  5  5  5  5
++         5  5  5  5  3  3  4  4  3  3  3  3  3  3  3  3  3
++         3  3  3  3  3  3  3  3  3  3  3  3  3  3  3  3  3
++         3  3  8  9  9 14  5  5  5  5  5  8  5  5  5  5  5
++         6  5  5  6  5  5  6  6  5  5  5  6  0  0  0  0  0
%c M  cc GPS ccc cccc cccc cccc cccc ccccc ccccc ccccc ccccc
%c cc cc ccc ccc cccc cccc cccc cccc ccccc ccccc ccccc ccccc
%f  0.0000000  0.000000000  0.00000000000  0.000000000000000
%f  0.0000000  0.000000000  0.00000000000  0.000000000000000
%i    0    0    0    0      0      0      0      0         0
%i    0    0    0    0      0      0      0      0         0
/* INFORMATION & ANALYSIS CENTER (IAC) OF MCC   (RAPID DATA)
/* S/V CLOCKS ARE ALIGNED TO GPS & GLONASS TIME RESPECTIVELY
/* USING THE BROADCAST EPHEMERIS                            
/* PCV:IGS14_2056 OL/AL:FES2004  NONE     YN ORB:CoN CLK:CoN
*  2019 08 06 12 45  0.00000000
PC01 -32321.773536  27082.681257   -985.478378    223.729624
PC02   4488.134957  41913.831812    493.171483    -11.460051
PC03 -14739.893852  39530.671652   -350.737518   -263.232260
PC04 -39617.759871  14447.988808   -630.660716    874.147201
PC06  -7270.530115  25340.562513  33322.990689    494.029546
PC07 -23733.343775  28205.772862 -20753.644999    -48.865428
PC08 -13063.666456  38179.280950 -11565.440503    167.338496
PC09   5765.230007  31850.073395  27436.284515   -130.228226
PC10  -9977.178229  29115.739391 -28817.802467    -56.065903
PC11  -7260.047955  16359.604300 -21343.510449    228.262882
PC12 -18956.090357 -12121.675543 -16505.112288    932.115251
PC13  -5011.386817  41702.464052   1246.830809   -893.267833
PC14 -24868.265501   6975.918541  10582.572732    515.098766
PC16  -5249.126723  25627.740770  33142.902198   -879.957256
PE01  -7642.828687  21069.382367 -19335.535008   -662.835629
PE02   7564.999649 -21054.649576  19384.887638     72.705861
PE03  -3283.147192 -19036.441685 -22426.931031   -196.513346
PE04  21742.220587  17581.508400   9716.577496   -338.803069
PE05  17302.280849  -9339.844387 -22118.027733   -459.892250
PE07 -27652.577942  -5752.096146   8891.647569   -240.930484
PE08 -22012.048546 -17304.232813  -9621.005569   6312.077548
PE09  27648.974380   5563.911617  -8945.002969   6356.123322
PE11  16566.395084   2813.162089  24358.958177   5633.126089
PE12  11902.382125  23080.090189  14215.948167   6261.628426
PE13 -16509.037338  -2879.188997 -24399.741012    391.050657
PE14  10220.654893  25289.149202 -11874.585194   -671.114400
PE15 -12132.751589 -22750.774315 -14537.925843    900.411954
PE18 -20389.287297 -18682.906406  -3239.101197   -766.155492
PE19   1152.009045  18395.375611  23170.116199     -4.710372
PE21 -22934.676095  18528.516208  -2692.698432   -548.033344
PE24  24834.559493  -5048.992454 -15307.933021   5938.284730
PE25  22952.026716 -18496.513404   2637.719213   1719.350775
PE26 -11462.494414  18735.878474 -19842.135531   4255.139887
PE27 -24716.731150   5021.188879  15506.395191    413.787293
PE30 -12090.525718 -11385.463906  24497.965578   4650.829758
PE31  11978.129290  11392.222363 -24542.600215   -467.107993
PE33    638.275130  29341.619841  -3862.968641   -469.821765
PE36  11217.964725 -18735.765241  19981.423208    678.245781
PG01  13620.179632 -18324.920768  13094.089377    -88.630803
PG02 -14755.253475  -2958.682482 -21280.802026   -276.875030
PG03  20776.254379 -13263.336789  -9824.017201      0.428545
PG04  22901.822471  12861.997492   5288.505032     63.790885
PG05 -24969.290842   1074.656617  -9420.365552     -0.429575
PG06  -7894.363831 -18231.760528 -17571.988471    -16.529719
PG07   5911.275605 -25616.130200    828.402891    -79.592609
PG08  17591.167060  -2295.234021  19862.244800     -1.625741
PG09   -644.031433 -18778.271026 -18809.318135    354.112226
PG10   7557.835571  13461.925320  21691.942760     -4.303359
PG11  11063.990721 -15444.810947  18135.624497   -542.273903
PG12 -23255.433685  10344.621904  -7500.823647    216.724196
PG13 -20275.922098  -8668.263512  14738.049200    -51.031010
PG14  18689.216101  18898.173754  -1762.344302    -67.920133
PG15 -17763.043314   4310.640136  19121.834817   -295.981167
PG16  24868.876487   1697.410868  -9960.782589    -62.616165
PG17 -14647.142423 -21448.188790   6183.888030    101.925527
PG18  15260.185773 -10544.039587  18464.721724     75.732237
PG19 -17820.176136 -19648.779026   -979.346686   -284.485570
PG20  -2281.135197  17192.814061  19970.389429    526.332471
PG21   -385.940820  26167.858913   5826.283918   -141.240232
PG22  24154.823241 -10716.352530  -1912.934159   -740.561406
PG23  11874.096565 -10010.256752 -21224.622509   -173.584804
PG24 -14262.737097  16165.030626  15134.054927     -0.406050
PG25 -12169.440987  16025.548029 -17417.198358     -5.769306
PG26  18675.119622   7117.934016 -17598.602246      8.609736
PG27  21875.203616  10065.500951  11423.104437    -15.808680
PG28  -6241.451707 -13962.176279  22312.722537    765.270555
PG29  -3199.427960  16575.164643 -20537.861704    132.098447
PG30  -1486.933248 -24065.602712  10948.949585    -14.080912
PG31   9040.076639  16496.472467 -18572.949099     19.216305
PG32  15688.665763  20618.837338   6195.008936      8.678476
PJ01 -29577.034302  24505.923119  22559.142368   -262.856990
PJ02 -34188.888380  24535.178600   7904.486052     -2.031270
PJ03 -21709.766805  20077.455963 -25457.421764     -0.349349
PJ07 -25382.312339  33676.531044     34.059687     -0.043172
PR01  24871.864152   5465.760307   1318.046359     47.764337
PR02  17941.936609  -4625.190173 -17516.994953    381.944839
PR03    396.739965 -11082.735675 -22926.926361     -0.474446
PR04 -17837.796130 -10856.747336 -14620.151341    316.653063
PR05 -25036.751851  -4664.315639   1262.341754     33.322409
PR06 -17084.200220   5617.049911  18071.415974    159.495372
PR07    254.641946  11225.977222  22942.530924    -24.616325
PR08  17186.340959  11088.521776  15302.434722     16.336642
PR09 -17665.216257  18377.962330   1713.413298     83.972293
PR11   5415.045559  10334.755757 -22668.887522    -75.107460
PR12  16167.131927  -4478.143311 -19189.006088     50.342113
PR13  18018.069611 -17590.626912  -4047.091786    -26.808678
PR14   9443.005049 -19772.875987  13057.218280     41.682311
PR15  -4623.057233 -10855.407623  22639.564801    103.415595
PR16 -16219.324687   4706.327043  19055.831243      6.511415
PR17  -2048.051375 -22918.293962  11057.794354    249.691116
PR18 -10030.454473 -22679.385087  -5854.938980      2.887038
PR19 -12334.132863 -10709.042915 -19600.914093    -46.597028
PR20  -7559.123248   9749.980628 -22332.503707   -386.584253
PR21   2429.558184  23126.407028 -10456.454814    -64.317292
PR22  10829.513504  21506.609093   8592.576694    -31.827191
PR23  11913.879860   4743.275503  22036.055928    245.517272
PR24   6526.269605 -11732.191565  21655.866271   -183.398156
PR26      0.000000      0.000000      0.000000 999999.999999
EOF
